[{"OBJECT_NAME":"STARLINK-4058","OBJECT_ID":"2022-086AA","EPOCH":"2026-03-09T15:52:58.555776","MEAN_MOTION":15.0884115,"ECCENTRICITY":0.00014506,"INCLINATION":53.2184,"RA_OF_ASC_NODE":194.2474,"ARG_OF_PERICENTER":103.2698,"MEAN_ANOMALY":256.8456,"EPHEMERIS_TYPE":0,"CLASSIFICATION_TYPE":"U","NORAD_CAT_ID":53266,"ELEMENT_SET_NO":999,"REV_AT_EPOCH":20106,"BSTAR":-1.5118136e-5,"MEAN_MOTION_DOT":-5.29e-6,"MEAN_MOTION_DDOT":0},{"OBJECT_NAME":"ATLAS H R\/B","OBJECT_ID":"1987-043B","EPOCH":"2026-03-09T13:01:50.955168","MEAN_MOTION":13.51112774,"ECCENTRICITY":0.07077502,"INCLINATION":63.3177,"RA_OF_ASC_NODE":133.9687,"ARG_OF_PERICENTER":116.0924,"MEAN_ANOMALY":251.4684,"EPHEMERIS_TYPE":0,"CLASSIFICATION_TYPE":"U","NORAD_CAT_ID":17998,"ELEMENT_SET_NO":999,"REV_AT_EPOCH":33779,"BSTAR":0.00041214221,"MEAN_MOTION_DOT":1.232e-5,"MEAN_MOTION_DDOT":0}]
